STARLINK-1339
1 15533C 20025C   21326.14314235  .00283617  00000-0  13092-1 0  3263
2 15533  53.0547 306.4788 0001392  67.9726  40.4760 15.19414901    11
